{
  "type": "FeatureCollection",
  "generator": "overpass-turbo",
  "copyright": "The data included in this document is from www.openstreetmap.org. The data is made available under ODbL.",
  "timestamp": "2025-01-08T09:49:26Z",
  "features": [
    {
      "type": "Feature",
      "properties": {
        "@id": "node/824316256",
        "addr:city": "Salzburg",
        "addr:country": "AT",
        "addr:housenumber": "28",
        "addr:postcode": "5020",
        "addr:street": "Linzer Gasse",
        "at_bev:addr_date": "2023-10-01",
        "contact:mobile": "+43 664 1660008",
        "contact:website": "https://humana.at/filialuebersicht/filialuebersicht-salzburg/",
        "name": "Humana",
        "opening_hours": "Mo-Sa 10:00-18:00",
        "shop": "second_hand"
      },
      "geometry": {
        "type": "Point",
        "coordinates": [
          13.0465132,
          47.8030003
        ]
      },
      "id": "node/824316256"
    },
    {
      "type": "Feature",
      "properties": {
        "@id": "node/4621069512",
        "addr:city": "Salzburg",
        "addr:housenumber": "11",
        "addr:postcode": "5020",
        "addr:street": "Gaswerkgasse",
        "contact:email": "carla.lehen@caritas-salzburg.at",
        "contact:phone": "+43 5 17605067",
        "contact:website": "https://www.caritas-salzburg.at/hilfe-angebote/beschaeftigung/carla/carla-lehen",
        "name": "carla",
        "opening_hours": "Mo-Fr 10:00-18:00; Sa 10:00-14:00",
        "operator": "Caritas Salzburg",
        "shop": "second_hand",
        "wheelchair": "yes"
      },
      "geometry": {
        "type": "Point",
        "coordinates": [
          13.0326375,
          47.8099849
        ]
      },
      "id": "node/4621069512"
    },
    {
      "type": "Feature",
      "properties": {
        "@id": "node/5373539587",
        "addr:city": "Salzburg",
        "addr:country": "AT",
        "addr:housenumber": "7",
        "addr:postcode": "5020",
        "addr:street": "Mirabellplatz",
        "at_bev:addr_date": "2023-10-01",
        "name": "Humana",
        "opening_hours": "Mo-Fr 10:00-18:00; Sa 10:00-17:00",
        "shop": "second_hand",
        "wheelchair": "yes"
      },
      "geometry": {
        "type": "Point",
        "coordinates": [
          13.0438439,
          47.8048225
        ]
      },
      "id": "node/5373539587"
    },
    {
      "type": "Feature",
      "properties": {
        "@id": "node/5373874202",
        "addr:city": "Salzburg",
        "addr:country": "AT",
        "addr:housenumber": "132",
        "addr:postcode": "5020",
        "addr:street": "Kendlerstraße",
        "at_bev:addr_date": "2023-10-01",
        "contact:phone": "+43 662 824998",
        "name": "Altwaren Fuchs",
        "note": "Vielleicht geschlossen?",
        "operator": "Rudolf Fuchs",
        "shop": "second_hand"
      },
      "geometry": {
        "type": "Point",
        "coordinates": [
          13.0052663,
          47.7793404
        ]
      },
      "id": "node/5373874202"
    },
    {
      "type": "Feature",
      "properties": {
        "@id": "node/8206342445",
        "name": "Gwand & mehr",
        "opening_hours": "Fr 14:00-18:00",
        "shop": "second_hand"
      },
      "geometry": {
        "type": "Point",
        "coordinates": [
          12.9580098,
          47.874094
        ]
      },
      "id": "node/8206342445"
    },
    {
      "type": "Feature",
      "properties": {
        "@id": "node/9841628971",
        "addr:city": "Salzburg",
        "addr:housenumber": "7",
        "addr:postcode": "5020",
        "addr:street": "Moosstraße",
        "email": "office@moosstrasse7.at",
        "name": "Lebensladen",
        "operator": "Lebenshilfe Salzburg",
        "phone": "+43 662 234188",
        "second_hand": "only",
        "shop": "second_hand",
        "website": "https://moosstrasse7.at/lebensladen-second-hand-shop/"
      },
      "geometry": {
        "type": "Point",
        "coordinates": [
          13.0295998,
          47.7939578
        ]
      },
      "id": "node/9841628971"
    },
    {
      "type": "Feature",
      "properties": {
        "@id": "node/10147598897",
        "addr:city": "Thalgau",
        "addr:country": "AT",
        "addr:housenumber": "74",
        "addr:postcode": "5303",
        "addr:street": "Brunnbachweg",
        "name": "Te Ta Re Fundgrube",
        "opening_hours": "Mo,Fr 15:00-18:00",
        "shop": "second_hand"
      },
      "geometry": {
        "type": "Point",
        "coordinates": [
          13.2288212,
          47.8446675
        ]
      },
      "id": "node/10147598897"
    },
    {
      "type": "Feature",
      "properties": {
        "@id": "node/11137311600",
        "name": "Flohmarkt - Missionskreis",
        "shop": "second_hand"
      },
      "geometry": {
        "type": "Point",
        "coordinates": [
          13.0298227,
          47.8487852
        ]
      },
      "id": "node/11137311600"
    },
    {
      "type": "Feature",
      "properties": {
        "@id": "node/11716155997",
        "addr:city": "Salzburg",
        "addr:country": "AT",
        "addr:housenumber": "6",
        "addr:postcode": "5020",
        "addr:street": "Schwarzstraße",
        "at_bev:addr_date": "2023-10-01",
        "contact:website": "https://humana.at/filialuebersicht/filialuebersicht-salzburg/",
        "name": "Humana",
        "opening_hours": "Mo-Sa 10:00-18:00",
        "shop": "second_hand"
      },
      "geometry": {
        "type": "Point",
        "coordinates": [
          13.0444304,
          47.8018402
        ]
      },
      "id": "node/11716155997"
    },
    {
      "type": "Feature",
      "properties": {
        "@id": "node/11716254409",
        "addr:city": "Salzburg",
        "addr:country": "AT",
        "addr:housenumber": "70",
        "addr:postcode": "5023",
        "addr:street": "Bachstraße",
        "at_bev:addr_date": "2023-10-01",
        "contact:phone": "+43 664 804216620",
        "contact:website": "https://www.pc-ok.at/",
        "name": "PC-OK",
        "opening_hours": "Mo-Fr 09:00-18:00",
        "operator": "rwsanderskompetent",
        "shop": "second_hand"
      },
      "geometry": {
        "type": "Point",
        "coordinates": [
          13.0645613,
          47.8238739
        ]
      },
      "id": "node/11716254409"
    },
    {
      "type": "Feature",
      "properties": {
        "@id": "node/11722177127",
        "addr:city": "Salzburg",
        "addr:country": "AT",
        "addr:housenumber": "78",
        "addr:postcode": "5026",
        "addr:street": "Aigner Straße",
        "at_bev:addr_date": "2023-10-01",
        "contact:email": "taok@soziale-arbeit.at",
        "contact:phone": "+43 662 626706",
        "name": "TAO",
        "opening_hours": "Mo-Fr 09:00-18:00; We 11:00-18:00; Sa 09:00-13:15",
        "shop": "second_hand"
      },
      "geometry": {
        "type": "Point",
        "coordinates": [
          13.0802308,
          47.7835283
        ]
      },
      "id": "node/11722177127"
    },
    {
      "type": "Feature",
      "properties": {
        "@id": "node/11722177128",
        "addr:city": "Salzburg",
        "addr:country": "AT",
        "addr:housenumber": "56",
        "addr:postcode": "5026",
        "addr:street": "Aigner Straße",
        "at_bev:addr_date": "2023-10-01",
        "contact:email": "sophia.wegner@caritas-salzburg.at",
        "contact:mobile": "+43 676 848210261",
        "contact:website": "https://www.caritas-salzburg.at/hilfe-angebote/beschaeftigung/carla/carla-aigen",
        "name": "carla",
        "opening_hours": "Mo-Fr 10:00-18:00; We off",
        "operator": "Caritas Salzburg",
        "shop": "second_hand"
      },
      "geometry": {
        "type": "Point",
        "coordinates": [
          13.0773219,
          47.7886915
        ]
      },
      "id": "node/11722177128"
    },
    {
      "type": "Feature",
      "properties": {
        "@id": "node/11722177129",
        "contact:email": "carla.herrnau@caritas-salzburg.at",
        "contact:phone": "05 1760-5074",
        "contact:website": "https://www.caritas-salzburg.at/hilfe-angebote/beschaeftigung/carla/carla-herrnau",
        "name": "carla",
        "opening_hours": "Mo-Fr 10:00-18:00",
        "operator": "Caritas Salzburg",
        "shop": "second_hand"
      },
      "geometry": {
        "type": "Point",
        "coordinates": [
          13.0644722,
          47.7856333
        ]
      },
      "id": "node/11722177129"
    },
    {
      "type": "Feature",
      "properties": {
        "@id": "node/11722177131",
        "addr:city": "Salzburg",
        "addr:country": "AT",
        "addr:housenumber": "2A",
        "addr:postcode": "5020",
        "addr:street": "Morzger Straße",
        "at_bev:addr_date": "2023-10-01",
        "contact:phone": "+43 662 821031",
        "name": "Secondo",
        "opening_hours": "Mo-Fr 10:00-13:00,15:00-18:00; Sa 10:00-14:00",
        "operator": "Elke König",
        "shop": "second_hand"
      },
      "geometry": {
        "type": "Point",
        "coordinates": [
          13.0521789,
          47.7835373
        ]
      },
      "id": "node/11722177131"
    },
    {
      "type": "Feature",
      "properties": {
        "@id": "node/11722177132",
        "addr:city": "Salzburg",
        "addr:country": "AT",
        "addr:housenumber": "25",
        "addr:postcode": "5020",
        "addr:street": "Teisenberggasse",
        "at_bev:addr_date": "2023-10-01",
        "contact:phone": "+43 662 429929",
        "contact:website": "https://www.soziale-arbeit.at/tao",
        "name": "TAO",
        "opening_hours": "Mo-Fr 09:00-17:00; Sa 09:00-13:00",
        "shop": "second_hand"
      },
      "geometry": {
        "type": "Point",
        "coordinates": [
          13.0103009,
          47.8035026
        ]
      },
      "id": "node/11722177132"
    },
    {
      "type": "Feature",
      "properties": {
        "@id": "node/11722177136",
        "addr:city": "Salzburg",
        "addr:country": "AT",
        "addr:housenumber": "19",
        "addr:postcode": "5020",
        "addr:street": "Roseggerstraße",
        "at_bev:addr_date": "2023-10-01",
        "name": "TAO",
        "opening_hours": "Mo-Fr 10:00-18:00",
        "shop": "second_hand",
        "wheelchair": "yes"
      },
      "geometry": {
        "type": "Point",
        "coordinates": [
          13.0295451,
          47.8108223
        ]
      },
      "id": "node/11722177136"
    },
    {
      "type": "Feature",
      "properties": {
        "@id": "node/11753671721",
        "addr:city": "Salzburg",
        "addr:country": "AT",
        "addr:housenumber": "10",
        "addr:postcode": "5020",
        "addr:street": "Scherzhauserfeldstraße",
        "at_bev:addr_date": "2023-10-01",
        "contact:mobile": "+43 699 10147660",
        "contact:website": "https://www.diesosa.at/",
        "name": "SOSA Flohmarktshop",
        "opening_hours": "Th,Fr 10:00-18:00",
        "shop": "second_hand",
        "wheelchair": "no"
      },
      "geometry": {
        "type": "Point",
        "coordinates": [
          13.0291515,
          47.814989
        ]
      },
      "id": "node/11753671721"
    }
  ]
}