{
  "type": "FeatureCollection",
  "generator": "overpass-turbo",
  "copyright": "The data included in this document is from www.openstreetmap.org. The data is made available under ODbL.",
  "timestamp": "2024-12-23T16:11:53Z",
  "features": [
    {
      "type": "Feature",
      "properties": {
        "@id": "node/266071059",
        "amenity": "restaurant",
        "check_date:opening_hours": "2023-05-20",
        "cuisine": "indian;thai;international",
        "delivery": "Mo-Sa 11:00-21:30;Su 12:00-20:00",
        "diet:vegan": "yes",
        "diet:vegetarian": "yes",
        "email": "ind-s-staatsbruecke@soulkitchen.world",
        "indoor_seating": "yes",
        "name": "my Indigo Staatsbrücke",
        "opening_hours": "Mo-Sa 11:00-22:00; Su 12:00-21:00",
        "outdoor_seating": "yes",
        "phone": "+43-662-843480",
        "smoking": "outside",
        "takeaway": "yes",
        "wheelchair": "no"
      },
      "geometry": {
        "type": "Point",
        "coordinates": [
          13.045302,
          47.8002674
        ]
      },
      "id": "node/266071059"
    },
    {
      "type": "Feature",
      "properties": {
        "@id": "node/268056323",
        "amenity": "restaurant",
        "cuisine": "asian",
        "diet:vegan": "yes",
        "diet:vegetarian": "yes",
        "indoor_seating": "yes",
        "name": "Japan Restaurant",
        "opening_hours": "Mo-Su 10:00-21:00",
        "outdoor_seating": "yes",
        "wheelchair": "no"
      },
      "geometry": {
        "type": "Point",
        "coordinates": [
          13.0467797,
          47.8031766
        ]
      },
      "id": "node/268056323"
    },
    {
      "type": "Feature",
      "properties": {
        "@id": "node/268056325",
        "addr:city": "Salzburg",
        "addr:country": "AT",
        "addr:housenumber": "26",
        "addr:postcode": "5020",
        "addr:street": "Linzer Gasse",
        "amenity": "cafe",
        "at_bev:addr_date": "2023-10-01",
        "diet:vegan": "yes",
        "diet:vegetarian": "yes",
        "indoor_seating": "yes",
        "level": "0",
        "name": "Cafe Habakuk",
        "opening_hours": "Mo-Th 07:00-19:00; Fr 07:00-20:00; Sa 07:00-18:00",
        "outdoor_seating": "yes",
        "owner": "Fam. Vonblon",
        "wheelchair": "no"
      },
      "geometry": {
        "type": "Point",
        "coordinates": [
          13.0464463,
          47.8029492
        ]
      },
      "id": "node/268056325"
    },
    {
      "type": "Feature",
      "properties": {
        "@id": "node/268056345",
        "addr:housenumber": "9",
        "addr:street": "Linzer Gasse",
        "amenity": "restaurant",
        "check_date:opening_hours": "2023-03-17",
        "diet:vegan": "yes",
        "diet:vegetarian": "yes",
        "indoor_seating": "yes",
        "name": "Gablerbräu",
        "opening_hours": "Mo-Su 11:30-24:00",
        "outdoor_seating": "no",
        "phone": "+43-662-88 9 65",
        "stars": "3",
        "tourism": "hotel",
        "website": "https://www.gablerbrau.at/",
        "wheelchair": "yes",
        "wikidata": "Q59536317"
      },
      "geometry": {
        "type": "Point",
        "coordinates": [
          13.0455222,
          47.8024277
        ]
      },
      "id": "node/268056345"
    },
    {
      "type": "Feature",
      "properties": {
        "@id": "node/441382592",
        "addr:city": "Salzburg",
        "addr:country": "AT",
        "addr:housenumber": "1",
        "addr:postcode": "5020",
        "addr:street": "Südtiroler Platz",
        "amenity": "fast_food",
        "brand": "Burger King",
        "brand:wikidata": "Q177054",
        "brand:wikipedia": "en:Burger King",
        "check_date:opening_hours": "2024-05-27",
        "contact:facebook": "https://www.facebook.com/BurgerKing.Oesterreich",
        "contact:instagram": "https://www.instagram.com/burgerkingaustria/",
        "contact:phone": "+43 662 878658",
        "contact:website": "http://www.burgerking.at/",
        "cuisine": "burger",
        "diet:vegan": "yes",
        "diet:vegetarian": "yes",
        "indoor_seating": "yes",
        "name": "Burger King",
        "opening_hours": "Mo-Su 10:00-22:00",
        "operator": "MFAT AdFund",
        "outdoor_seating": "no",
        "smoking": "no",
        "takeaway": "yes",
        "wheelchair": "yes"
      },
      "geometry": {
        "type": "Point",
        "coordinates": [
          13.0453093,
          47.8134893
        ]
      },
      "id": "node/441382592"
    },
    {
      "type": "Feature",
      "properties": {
        "@id": "node/441382595",
        "addr:city": "Salzburg",
        "addr:housenumber": "13",
        "addr:postcode": "5020",
        "addr:street": "Südtiroler Platz",
        "amenity": "fast_food",
        "brand": "McDonald's",
        "brand:wikidata": "Q38076",
        "brand:wikipedia": "en:McDonald's",
        "check_date:opening_hours": "2023-08-02",
        "cuisine": "burger",
        "diet:vegan": "yes",
        "diet:vegetarian": "yes",
        "drive_through": "no",
        "indoor_seating": "yes",
        "level": "0",
        "name": "McDonald's",
        "opening_hours": "Mo-Fr 00:00-01:00,05:30-24:00; Sa-Su 00:00-03:00,05:30-24:00; Jan 02,Jan 07,May 02,Aug 16,Oct 27,Nov 02,Dec 09,Dec 26,Dec 27 00:00-01:00,05:30-24:00",
        "opening_hours:url": "https://www.mcdonalds.at/restaurant/suedtiroler-platz-13-forum-1-a-5020-salzburg",
        "operator": "MK Gastro S2 GmbH & Co. KG",
        "outdoor_seating": "no",
        "smoking": "no",
        "takeaway": "yes",
        "toilets:wheelchair": "no",
        "website": "https://www.mcdonalds.at/",
        "wheelchair": "yes"
      },
      "geometry": {
        "type": "Point",
        "coordinates": [
          13.0446867,
          47.8138254
        ]
      },
      "id": "node/441382595"
    },
    {
      "type": "Feature",
      "properties": {
        "@id": "node/477834749",
        "addr:city": "Salzburg",
        "addr:housenumber": "75",
        "addr:postcode": "5020",
        "addr:street": "Alpenstraße",
        "branch": "Bio Supermarkt",
        "brand": "Denns BioMarkt",
        "brand:wikidata": "Q48883773",
        "brand:wikipedia": "de:Basic AG",
        "check_date:opening_hours": "2023-03-03",
        "diet:vegan": "yes",
        "name": "Denns BioMarkt",
        "opening_hours": "Mo-Fr 08:00-19:00; Sa 08:00-18:00",
        "operator": "Dennree GmbH",
        "operator:wikidata": "Q1189641",
        "organic": "only",
        "phone": "+43 662 6262110",
        "shop": "supermarket",
        "website": "https://www.denns-biomarkt.at/salzburg-alpenstr-75/marktseite",
        "wheelchair": "yes"
      },
      "geometry": {
        "type": "Point",
        "coordinates": [
          13.0679972,
          47.7815776
        ]
      },
      "id": "node/477834749"
    },
    {
      "type": "Feature",
      "properties": {
        "@id": "node/572229594",
        "amenity": "cafe",
        "check_date": "2023-07-03",
        "diet:vegan": "yes",
        "diet:vegetarian": "only",
        "indoor_seating": "yes",
        "name": "Tula Bistro",
        "opening_hours": "Mo-Fr 11:00-21:00",
        "outdoor_seating": "yes",
        "phone": "+43 660 9877011",
        "website": "https://www.tula-bistro.at/"
      },
      "geometry": {
        "type": "Point",
        "coordinates": [
          13.0548525,
          47.7969396
        ]
      },
      "id": "node/572229594"
    },
    {
      "type": "Feature",
      "properties": {
        "@id": "node/654013754",
        "addr:city": "Salzburg",
        "addr:country": "AT",
        "addr:housenumber": "33",
        "addr:postcode": "5020",
        "addr:street": "Sterneckstraße",
        "brand": "Denns BioMarkt",
        "brand:wikidata": "Q48883773",
        "diet:vegan": "yes",
        "name": "Denns BioMarkt",
        "opening_hours": "Mo-Fr 08:30-19:00; Sa 08:00-18:00",
        "operator": "Dennree GmbH",
        "operator:wikidata": "Q1189641",
        "organic": "only",
        "shop": "supermarket",
        "wheelchair": "yes"
      },
      "geometry": {
        "type": "Point",
        "coordinates": [
          13.0571275,
          47.8095545
        ]
      },
      "id": "node/654013754"
    },
    {
      "type": "Feature",
      "properties": {
        "@id": "node/767837930",
        "addr:city": "Salzburg",
        "addr:country": "AT",
        "addr:housenumber": "8",
        "addr:postcode": "5020",
        "addr:street": "Priesterhausgasse",
        "amenity": "restaurant",
        "at_bev:addr_date": "2023-04-15",
        "diet:vegan": "yes",
        "diet:vegetarian": "yes",
        "indoor_seating": "yes",
        "name": "Zum fidelen Affen",
        "opening_hours": "Mo-Su 17:00+",
        "outdoor_seating": "no",
        "wheelchair": "limited"
      },
      "geometry": {
        "type": "Point",
        "coordinates": [
          13.0455195,
          47.8028577
        ]
      },
      "id": "node/767837930"
    },
    {
      "type": "Feature",
      "properties": {
        "@id": "node/814217483",
        "addr:city": "Salzburg",
        "addr:country": "AT",
        "addr:housenumber": "24",
        "addr:postcode": "5020",
        "addr:street": "Getreidegasse",
        "amenity": "restaurant",
        "cuisine": "chinese",
        "diet:vegan": "yes",
        "diet:vegetarian": "yes",
        "indoor_seating": "yes",
        "name": "Yuen China Restaurant",
        "opening_hours": "Mo-Su 11:30-15:00,17:30-22:00",
        "outdoor_seating": "yes",
        "payment:credit_cards": "yes",
        "payment:debit_cards": "yes",
        "smoking": "outside",
        "wheelchair": "no"
      },
      "geometry": {
        "type": "Point",
        "coordinates": [
          13.0423762,
          47.8003489
        ]
      },
      "id": "node/814217483"
    },
    {
      "type": "Feature",
      "properties": {
        "@id": "node/814276653",
        "addr:city": "Salzburg",
        "addr:country": "AT",
        "addr:housenumber": "3",
        "addr:postcode": "5020",
        "addr:street": "Linzer Gasse",
        "amenity": "ice_cream",
        "contact:email": "salzburg-linzergasse@gelateriaromana.com",
        "contact:mobile": "+43 662 243376",
        "diet:dairy_free": "yes",
        "diet:gluten_free": "yes",
        "diet:lacto_vegetarian": "yes",
        "diet:lactose_free": "yes",
        "diet:ovo_vegetarian": "yes",
        "diet:pescetarian": "no",
        "diet:vegan": "yes",
        "diet:vegetarian": "yes",
        "image": "https://backoffice3.titanka.com/verticalizzazioni/233/283/upload/1632221087_salisburgo_esterno.jpg",
        "indoor_seating": "yes",
        "name": "Gelateria La Romana",
        "opening_hours": "Mo-Th 11:00-21:00; Fr-Su 11:00-22:00",
        "outdoor_seating": "yes",
        "smoking": "no",
        "takeaway": "yes",
        "toilets": "yes",
        "website": "https://www.gelateriaromana.com/de/75-eisdielen-salzburg.php",
        "wheelchair": "limited"
      },
      "geometry": {
        "type": "Point",
        "coordinates": [
          13.0453096,
          47.8021389
        ]
      },
      "id": "node/814276653"
    },
    {
      "type": "Feature",
      "properties": {
        "@id": "node/814276664",
        "addr:city": "Salzburg",
        "addr:country": "AT",
        "addr:housenumber": "7",
        "addr:postcode": "5020",
        "addr:street": "Franz-Josef-Kai",
        "amenity": "restaurant",
        "check_date:opening_hours": "2024-04-15",
        "cuisine": "indian",
        "diet:halal": "yes",
        "diet:vegan": "yes",
        "diet:vegetarian": "yes",
        "email": "info@indianpalace.at",
        "indoor_seating": "yes",
        "name": "Indian Palace",
        "opening_hours": "Mo-Fr 11:30-14:00,17:30-22:00; Sa,PH 17:30-22:00; Su off",
        "outdoor_seating": "yes",
        "phone": "+43 662 84 67 35",
        "website": "https://www.indianpalace.at/",
        "wheelchair": "no"
      },
      "geometry": {
        "type": "Point",
        "coordinates": [
          13.04058,
          47.801416
        ]
      },
      "id": "node/814276664"
    },
    {
      "type": "Feature",
      "properties": {
        "@id": "node/880353992",
        "addr:city": "Salzburg",
        "addr:country": "AT",
        "addr:housenumber": "10",
        "addr:postcode": "5020",
        "addr:street": "Festungsgasse",
        "amenity": "restaurant",
        "check_date:opening_hours": "2023-03-05",
        "contact:fax": "+43 662 842615",
        "cuisine": "regional",
        "diet:vegan": "yes",
        "diet:vegetarian": "yes",
        "name": "Stieglkeller",
        "opening_hours": "Mo-Su 11:00-22:00",
        "operator": "Gassner & Gassner Gastronomie GmbH",
        "payment:credit_cards": "yes",
        "payment:debit_cards": "yes",
        "phone": "+43 662 842681",
        "wheelchair": "no",
        "wikidata": "Q38007255"
      },
      "geometry": {
        "type": "Point",
        "coordinates": [
          13.0470271,
          47.7961411
        ]
      },
      "id": "node/880353992"
    },
    {
      "type": "Feature",
      "properties": {
        "@id": "node/993115617",
        "addr:city": "Salzburg",
        "addr:country": "AT",
        "addr:housename": "Das Zirklwirthshaus Nr 91 in der Pfeiffergasse",
        "addr:housenumber": "14",
        "addr:postcode": "5020",
        "addr:street": "Pfeifergasse",
        "amenity": "restaurant",
        "at_bev:addr_date": "2018-04-02",
        "bar": "yes",
        "brewery": "Stigl",
        "check_date": "2023-03-25",
        "cuisine": "regional",
        "diet:vegan": "yes",
        "diet:vegetarian": "yes",
        "email": "office@zumzirkelwirt.at",
        "level": "0",
        "name": "Zum Zirkelwirt",
        "opening_hours": "11:00-22:30",
        "outdoor_seating": "yes",
        "phone": "+43 662 842796",
        "reservation": "yes",
        "smoking": "outside",
        "toilets": "yes",
        "website": "https://www.zumzirkelwirt.at/",
        "wheelchair": "limited"
      },
      "geometry": {
        "type": "Point",
        "coordinates": [
          13.0494897,
          47.7980963
        ]
      },
      "id": "node/993115617"
    },
    {
      "type": "Feature",
      "properties": {
        "@id": "node/1352901988",
        "amenity": "restaurant",
        "cuisine": "italian;pizza",
        "diet:vegan": "yes",
        "diet:vegetarian": "yes",
        "indoor_seating": "yes",
        "name": "Beccofino",
        "opening_hours": "Mo-Fr 11:00-14:00; 17:00-22:00; PH 17:00-22:00",
        "outdoor_seating": "yes",
        "phone": "+43 662 879878",
        "takeaway": "yes",
        "website": "https://ristorante-beccofino.at"
      },
      "geometry": {
        "type": "Point",
        "coordinates": [
          13.0509882,
          47.8070065
        ]
      },
      "id": "node/1352901988"
    },
    {
      "type": "Feature",
      "properties": {
        "@id": "node/1447945886",
        "addr:city": "Salzburg",
        "addr:country": "AT",
        "addr:housenumber": "33",
        "addr:postcode": "5020",
        "addr:street": "Bayerhamerstraße",
        "amenity": "restaurant",
        "brewery": "Trumer",
        "check_date:opening_hours": "2022-01-31",
        "cuisine": "thai",
        "diet:vegan": "yes",
        "diet:vegetarian": "yes",
        "email": "info@restaurant-bangkok.at",
        "indoor_seating": "yes",
        "name": "Bangkok",
        "opening_hours": "Tu-Su 11:30-14:30,17:30-23:30",
        "outdoor_seating": "yes",
        "phone": "+43 662 87 36 88",
        "website": "https://www.restaurant-bangkok.at/",
        "wheelchair": "no"
      },
      "geometry": {
        "type": "Point",
        "coordinates": [
          13.0503722,
          47.8103258
        ]
      },
      "id": "node/1447945886"
    },
    {
      "type": "Feature",
      "properties": {
        "@id": "node/1947094386",
        "addr:city": "Salzburg",
        "addr:country": "AT",
        "addr:housenumber": "10",
        "addr:postcode": "5020",
        "addr:street": "Dreifaltigkeitsgasse",
        "amenity": "restaurant",
        "brand": "L'Osteria",
        "brand:wikidata": "Q17323478",
        "brand:wikipedia": "de:L’Osteria",
        "cuisine": "italian",
        "diet:vegan": "yes",
        "diet:vegetarian": "yes",
        "email": "salzburg@losteria.eu",
        "indoor_seating": "yes",
        "name": "L'Osteria",
        "opening_hours": "Mo-Sa 11:00-24:00; Su 12:00-24:00",
        "outdoor_seating": "yes",
        "phone": "+4366287065810",
        "website": "http://www.losteria.de/?uri=salzburgalt",
        "website:menu": "https://losteria.net/de-en/menu/menu-della-casa/",
        "wheelchair": "limited"
      },
      "geometry": {
        "type": "Point",
        "coordinates": [
          13.0449232,
          47.8025497
        ]
      },
      "id": "node/1947094386"
    },
    {
      "type": "Feature",
      "properties": {
        "@id": "node/2280811085",
        "addr:city": "Salzburg",
        "addr:housenumber": "15",
        "addr:postcode": "5020",
        "addr:street": "Wolf-Dietrich-Straße",
        "amenity": "cafe",
        "cuisine": "coffee_shop",
        "diet:vegan": "yes",
        "diet:vegetarian": "yes",
        "name": "Röstzimmer 15",
        "opening_hours": "Mo-Fr 09:15-16:00",
        "wheelchair": "no"
      },
      "geometry": {
        "type": "Point",
        "coordinates": [
          13.0477305,
          47.8051901
        ]
      },
      "id": "node/2280811085"
    },
    {
      "type": "Feature",
      "properties": {
        "@id": "node/2316914795",
        "addr:city": "Salzburg",
        "addr:country": "AT",
        "addr:housenumber": "3",
        "addr:postcode": "5020",
        "addr:street": "Franz-Josef-Straße",
        "amenity": "cafe",
        "check_date": "2024-04-21",
        "cuisine": "sandwich;salad",
        "diet:vegan": "yes",
        "diet:vegetarian": "only",
        "drive_through": "no",
        "email": "info@heartofjoy.at",
        "highchair": "yes",
        "indoor_seating": "yes",
        "internet_access": "wlan",
        "name": "The Heart of Joy Cafe",
        "opening_hours": "Mo-Th 08:00-19:00; Fr-Su 08:00-20:30",
        "outdoor_seating": "yes",
        "payment:cash": "yes",
        "payment:credit_cards": "yes",
        "payment:debit_cards": "yes",
        "phone": "+43662890773",
        "source": "survey",
        "takeaway": "yes",
        "website": "https://www.heartofjoy.at/",
        "wheelchair": "no"
      },
      "geometry": {
        "type": "Point",
        "coordinates": [
          13.0428601,
          47.8071742
        ]
      },
      "id": "node/2316914795"
    },
    {
      "type": "Feature",
      "properties": {
        "@id": "node/2367705830",
        "brand": "Anker",
        "brand:wikidata": "Q557116",
        "cafe": "yes",
        "check_date:opening_hours": "2024-05-27",
        "diet:vegan": "yes",
        "indoor_seating": "yes",
        "layer": "-1",
        "level": "0",
        "name": "Anker",
        "opening_hours": "Su-Fr,PH 05:30-20:00; Sa 05:30-19:00",
        "operator": "Manfred Gleisner",
        "outdoor_seating": "no",
        "pastry_shop": "yes",
        "shop": "bakery",
        "smoking": "no",
        "snack": "yes",
        "website": "https://www.ankerbrot.at/",
        "wheelchair": "yes"
      },
      "geometry": {
        "type": "Point",
        "coordinates": [
          13.0460942,
          47.812797
        ]
      },
      "id": "node/2367705830"
    },
    {
      "type": "Feature",
      "properties": {
        "@id": "node/2377549055",
        "addr:housenumber": "24",
        "addr:postcode": "5020",
        "addr:street": "Nonntaler Hauptstraße",
        "amenity": "restaurant",
        "cuisine": "mexican",
        "diet:vegan": "yes",
        "diet:vegetarian": "yes",
        "email": "office@lemonchilli.at",
        "indoor_seating": "yes",
        "name": "Lemonchilli",
        "opening_hours": "11:00-01:00",
        "outdoor_seating": "yes",
        "phone": "+43662842558",
        "smoking": "no",
        "website": "https://www.lemonchilli.at/"
      },
      "geometry": {
        "type": "Point",
        "coordinates": [
          13.0508629,
          47.7945479
        ]
      },
      "id": "node/2377549055"
    },
    {
      "type": "Feature",
      "properties": {
        "@id": "node/2402220650",
        "addr:city": "Salzburg – Aigen",
        "addr:housenumber": "32",
        "addr:postcode": "5026",
        "addr:street": "Gaisberg",
        "amenity": "restaurant",
        "contact:website": "https://goasn-wirtshaus.at/",
        "cuisine": "regional",
        "diet:vegan": "yes",
        "diet:vegetarian": "yes",
        "name": "Goasn Wirtshaus",
        "opening_hours": "We-Su 09:00-20:00",
        "phone": "+43 664 6576895",
        "wheelchair": "limited",
        "wheelchair:description": "Biergarten und Restaurant, nur mit Begleitung erreichbar"
      },
      "geometry": {
        "type": "Point",
        "coordinates": [
          13.11059,
          47.8038163
        ]
      },
      "id": "node/2402220650"
    },
    {
      "type": "Feature",
      "properties": {
        "@id": "node/2454124298",
        "brand": "Anker",
        "brand:wikidata": "Q557116",
        "diet:vegan": "yes",
        "indoor_seating": "yes",
        "name": "Anker",
        "opening_hours": "Mo-Fr 06:00-18:30, Sa 07:00-16:00, Su 07:00-17:00, PH 07:00-14:00",
        "outdoor_seating": "yes",
        "shop": "bakery",
        "wheelchair": "yes"
      },
      "geometry": {
        "type": "Point",
        "coordinates": [
          13.0329709,
          47.8064252
        ]
      },
      "id": "node/2454124298"
    },
    {
      "type": "Feature",
      "properties": {
        "@id": "node/2463152507",
        "addr:city": "Salzburg",
        "addr:housenumber": "13",
        "addr:postcode": "5020",
        "addr:street": "Bayerhamerstraße",
        "amenity": "restaurant",
        "changing_table": "no",
        "contact:email": "office@restaurant-tajmahal.com",
        "contact:phone": "+43 662 882010",
        "contact:website": "http://www.restaurant-tajmahal.com/",
        "cuisine": "indian",
        "diet:vegan": "yes",
        "diet:vegetarian": "yes",
        "indoor_seating": "yes",
        "name": "Taj Mahal",
        "opening_hours": "Tu-Fr,Su 11:30-13:45,17:30-21:30; Sa 17:30-21:30",
        "operator": "Bharat Bhushan",
        "outdoor_seating": "parklet",
        "toilets": "yes",
        "toilets:access": "customers",
        "toilets:gender_segregated": "yes",
        "toilets:wheelchair": "no",
        "wheelchair": "no"
      },
      "geometry": {
        "type": "Point",
        "coordinates": [
          13.0510639,
          47.807151
        ]
      },
      "id": "node/2463152507"
    },
    {
      "type": "Feature",
      "properties": {
        "@id": "node/2463216023",
        "addr:city": "Salzburg",
        "addr:country": "AT",
        "addr:housenumber": "1",
        "addr:postcode": "5020",
        "addr:street": "Chiemseegasse",
        "amenity": "cafe",
        "cuisine": "ice_cream",
        "diet:vegan": "yes",
        "name": "Icezeit",
        "takeaway": "yes",
        "website": "https://www.icezeit.at/"
      },
      "geometry": {
        "type": "Point",
        "coordinates": [
          13.0491044,
          47.7978238
        ]
      },
      "id": "node/2463216023"
    },
    {
      "type": "Feature",
      "properties": {
        "@id": "node/2902474040",
        "addr:city": "Salzburg",
        "addr:housenumber": "28",
        "addr:postcode": "5020",
        "addr:street": "Vogelweiderstraße",
        "amenity": "restaurant",
        "check_date": "2024-03-06",
        "cuisine": "regional",
        "diet:vegan": "yes",
        "diet:vegetarian": "yes",
        "email": "prost@fuxn.at",
        "name": "FUXN",
        "opening_hours": "Mo,Su,PH off; Tu-Sa 10:00-24:00",
        "outdoor_seating": "yes",
        "phone": "+43 (0) 662 265514",
        "smoking": "outside",
        "toilets:wheelchair": "yes",
        "website": "https://www.fuxn.at/",
        "wheelchair": "yes",
        "wheelchair:description": "2cm hohe Schwelle bei der Eingangstüre, elektrische Eingangstüre, Tische unterfahrbar, keine Hindernisse im Weg, Behindertenparkplatz ca.70m vom Eingang entfernt, Biergarten mit Kiesboden"
      },
      "geometry": {
        "type": "Point",
        "coordinates": [
          13.0552465,
          47.8098405
        ]
      },
      "id": "node/2902474040"
    },
    {
      "type": "Feature",
      "properties": {
        "@id": "node/2909144004",
        "addr:city": "Salzburg",
        "addr:housenumber": "13",
        "addr:postcode": "5020",
        "addr:street": "Südtiroler Platz",
        "amenity": "cafe",
        "brand": "Starbucks",
        "brand:wikidata": "Q37158",
        "brand:wikipedia": "en:Starbucks",
        "cuisine": "coffee_shop",
        "diet:vegan": "yes",
        "diet:vegetarian": "yes",
        "indoor_seating": "yes",
        "internet_access": "wlan",
        "level": "0",
        "name": "Starbucks",
        "official_name": "Starbucks Coffee",
        "opening_hours": "Mo-Fr 06:30-20:30; Sa 07:00-21:00; Su 08:00-20:00",
        "outdoor_seating": "yes",
        "smoking": "outside",
        "takeaway": "yes",
        "wheelchair": "yes"
      },
      "geometry": {
        "type": "Point",
        "coordinates": [
          13.0449037,
          47.813725
        ]
      },
      "id": "node/2909144004"
    },
    {
      "type": "Feature",
      "properties": {
        "@id": "node/3146383447",
        "addr:city": "Salzburg",
        "addr:housenumber": "7",
        "addr:postcode": "5020",
        "addr:street": "Mirabellplatz",
        "amenity": "restaurant",
        "cuisine": "burger",
        "diet:vegan": "yes",
        "diet:vegetarian": "yes",
        "indoor_seating": "yes",
        "name": "Pommes Boutique",
        "opening_hours": "Mo-Sa 11:00-20:00; Su off",
        "outdoor_seating": "yes",
        "phone": "+43 662 90 44 88",
        "source": "local knowledge",
        "toilets:wheelchair": "no",
        "website": "https://www.pommes-boutique.com",
        "wheelchair": "no"
      },
      "geometry": {
        "type": "Point",
        "coordinates": [
          13.0438927,
          47.8047425
        ]
      },
      "id": "node/3146383447"
    },
    {
      "type": "Feature",
      "properties": {
        "@id": "node/3444271245",
        "addr:city": "Salzburg",
        "addr:country": "AT",
        "addr:housenumber": "15",
        "addr:postcode": "5020",
        "addr:street": "Griesgasse",
        "brand": "BackWerk",
        "brand:wikidata": "Q798298",
        "brand:wikipedia": "de:BackWerk",
        "check_date:opening_hours": "2023-12-09",
        "diet:vegan": "yes",
        "indoor_seating": "yes",
        "name": "Backwerk",
        "opening_hours": "Mo-Fr 06:00-20:00; Sa 07:00-19:00; Su 08:00-18:00",
        "opening_hours:signed": "no",
        "outdoor_seating": "no",
        "phone": "+43 662890171",
        "shop": "bakery",
        "wheelchair": "yes"
      },
      "geometry": {
        "type": "Point",
        "coordinates": [
          13.0428467,
          47.8006422
        ]
      },
      "id": "node/3444271245"
    },
    {
      "type": "Feature",
      "properties": {
        "@id": "node/3618343209",
        "addr:city": "Salzburg",
        "addr:housenumber": "1",
        "addr:postcode": "5020",
        "addr:street": "Wolf-Dietrich-Straße",
        "amenity": "restaurant",
        "check_date": "2024-05-06",
        "cuisine": "indian;organic",
        "diet:vegan": "yes",
        "diet:vegetarian": "only",
        "indoor_seating": "yes",
        "internet_access": "wlan",
        "name": "Bio Bistro Spicy Spices",
        "opening_hours": "Mo-Su 11:00-21:00",
        "outdoor_seating": "yes",
        "phone": "+43 662 870712",
        "smoking": "no",
        "source": "survey",
        "takeaway": "yes",
        "wheelchair": "no"
      },
      "geometry": {
        "type": "Point",
        "coordinates": [
          13.0483214,
          47.8044018
        ]
      },
      "id": "node/3618343209"
    },
    {
      "type": "Feature",
      "properties": {
        "@id": "node/3726310304",
        "addr:city": "Salzburg",
        "addr:country": "AT",
        "addr:housenumber": "54",
        "addr:postcode": "5020",
        "addr:street": "Linzer Gasse",
        "amenity": "fast_food",
        "cuisine": "burger",
        "diet:vegan": "yes",
        "diet:vegetarian": "yes",
        "name": "BioBurgerMeister",
        "opening_hours": "Mo-Su 11:00-22:00",
        "organic": "yes",
        "payment:credit_cards": "yes",
        "payment:debit_cards": "yes",
        "phone": "+43 662 265101",
        "takeaway": "yes",
        "website": "https://www.bioburgermeister.com/",
        "wheelchair": "no"
      },
      "geometry": {
        "type": "Point",
        "coordinates": [
          13.0477399,
          47.803924
        ]
      },
      "id": "node/3726310304"
    },
    {
      "type": "Feature",
      "properties": {
        "@id": "node/3742827730",
        "addr:city": "Salzburg",
        "addr:housenumber": "1",
        "addr:postcode": "5020",
        "addr:street": "Elisabethstraße",
        "amenity": "restaurant",
        "capacity": "50",
        "cuisine": "international",
        "diet:vegan": "yes",
        "diet:vegetarian": "yes",
        "name": "leichtsinn",
        "opening_hours": "Mo-Fr 8:00-19:00, Tu 08:00-21:00",
        "phone": "+43 650 3331143",
        "smoking": "outside",
        "website": "https://www.leichtsinn-bistro.at",
        "wheelchair": "no"
      },
      "geometry": {
        "type": "Point",
        "coordinates": [
          13.0416186,
          47.8099167
        ]
      },
      "id": "node/3742827730"
    },
    {
      "type": "Feature",
      "properties": {
        "@id": "node/4233194992",
        "addr:housenumber": "6",
        "addr:postcode": "5020",
        "addr:street": "Schrannengasse",
        "amenity": "restaurant",
        "cuisine": "brazilian",
        "diet:vegan": "yes",
        "diet:vegetarian": "yes",
        "indoor_seating": "yes",
        "name": "Bistro de Marquez",
        "opening_hours": "Mo-Sa 11:30-14:00, 15:00-19:00",
        "outdoor_seating": "no",
        "website": "https://www.bistrodemarquez.at/",
        "wheelchair": "no"
      },
      "geometry": {
        "type": "Point",
        "coordinates": [
          13.0450782,
          47.8056246
        ]
      },
      "id": "node/4233194992"
    },
    {
      "type": "Feature",
      "properties": {
        "@id": "node/4386354489",
        "amenity": "bar",
        "diet:vegan": "yes",
        "diet:vegetarian": "yes",
        "name": "Eden Cafe Skybar",
        "opening_hours": "Mi-Sa 10:00-22:00",
        "payment:cash": "only"
      },
      "geometry": {
        "type": "Point",
        "coordinates": [
          13.0544524,
          47.794578
        ]
      },
      "id": "node/4386354489"
    },
    {
      "type": "Feature",
      "properties": {
        "@id": "node/4440128491",
        "addr:city": "Salzburg",
        "addr:country": "AT",
        "addr:housenumber": "8",
        "addr:postcode": "5020",
        "addr:street": "Nonntaler Hauptstraße",
        "amenity": "restaurant",
        "at_bev:addr_date": "2024-04-01",
        "contact:email": "office@uncle-van.at",
        "contact:facebook": "uncelvan.fan",
        "cuisine": "vietnamese",
        "diet:vegan": "yes",
        "diet:vegetarian": "yes",
        "indoor_seating": "yes",
        "name": "Uncle Van",
        "opening_hours": "Mo-Fr 11:30-21:00; Sa,Su 12:00-21:00",
        "outdoor_seating": "yes",
        "website": "https://www.uncle-van.at/"
      },
      "geometry": {
        "type": "Point",
        "coordinates": [
          13.0521331,
          47.7956317
        ]
      },
      "id": "node/4440128491"
    },
    {
      "type": "Feature",
      "properties": {
        "@id": "node/4442549192",
        "addr:housenumber": "39",
        "addr:street": "Linzer Gasse",
        "amenity": "cafe",
        "diet:vegan": "yes",
        "diet:vegetarian": "yes",
        "internet_access": "wlan",
        "name": "Coffeehouse",
        "opening_hours": "Mo-Sa 08:30-21:00",
        "wheelchair": "yes"
      },
      "geometry": {
        "type": "Point",
        "coordinates": [
          13.0467221,
          47.8042677
        ]
      },
      "id": "node/4442549192"
    },
    {
      "type": "Feature",
      "properties": {
        "@id": "node/4464172590",
        "addr:city": "Salzburg",
        "addr:housenumber": "39",
        "addr:postcode": "5020",
        "addr:street": "Linzer Gasse",
        "alt_name": "Ludwig - Das Burger Restaurant",
        "amenity": "restaurant",
        "cuisine": "burger",
        "diet:vegan": "yes",
        "diet:vegetarian": "yes",
        "name": "Ludwig",
        "opening_hours": "Mo-Su 11:00-22:00",
        "organic": "limited",
        "outdoor_seating": "yes",
        "phone": "+43 662 872500",
        "smoking": "no",
        "website": "https://www.ludwig-burger.at/salzburg/burger.html",
        "wheelchair": "yes"
      },
      "geometry": {
        "type": "Point",
        "coordinates": [
          13.0466745,
          47.8041259
        ]
      },
      "id": "node/4464172590"
    },
    {
      "type": "Feature",
      "properties": {
        "@id": "node/4548929269",
        "addr:city": "Salzburg",
        "addr:housenumber": "24A",
        "addr:postcode": "5020",
        "addr:street": "Franz-Josef-Straße",
        "amenity": "restaurant",
        "cuisine": "pizza",
        "diet:vegan": "yes",
        "diet:vegetarian": "yes",
        "email": "organicpizza@gmx.at",
        "indoor_seating": "yes",
        "name": "Organic Pizza",
        "opening_hours": "Mo 12:00-22:00; Tu 17:00-22:00; We-Sa 12:00-22:00",
        "outdoor_seating": "yes",
        "phone": "+43 664 5974470",
        "website": "https://www.organicpizza-salzburg.com/",
        "wheelchair": "limited"
      },
      "geometry": {
        "type": "Point",
        "coordinates": [
          13.0485842,
          47.8056446
        ]
      },
      "id": "node/4548929269"
    },
    {
      "type": "Feature",
      "properties": {
        "@id": "node/4755892735",
        "amenity": "cafe",
        "cuisine": "ice_cream",
        "diet:vegan": "yes",
        "name": "Timeless",
        "wheelchair": "no"
      },
      "geometry": {
        "type": "Point",
        "coordinates": [
          13.0456479,
          47.8026947
        ]
      },
      "id": "node/4755892735"
    },
    {
      "type": "Feature",
      "properties": {
        "@id": "node/4779777260",
        "addr:city": "Salzburg",
        "addr:housenumber": "36",
        "addr:postcode": "5020",
        "addr:street": "Moosstraße",
        "amenity": "restaurant",
        "cuisine": "nepalese",
        "description": "Die Küche des Himalaya",
        "diet:vegan": "yes",
        "diet:vegetarian": "yes",
        "email": "rambbk@hotmail.com",
        "indoor_seating": "yes",
        "name": "Kathmandu",
        "opening_hours": "We-Mo 11:30-14:30,17:30-22:00",
        "opening_hours:url": "https://motiviert.net/kathmandu/?page_id=74",
        "operator": "Ram Biswakarma",
        "outdoor_seating": "yes",
        "phone": "+43 662 875087",
        "website": "https://motiviert.net/kathmandu/",
        "wheelchair": "no"
      },
      "geometry": {
        "type": "Point",
        "coordinates": [
          13.0284871,
          47.7927641
        ]
      },
      "id": "node/4779777260"
    },
    {
      "type": "Feature",
      "properties": {
        "@id": "node/5242955221",
        "amenity": "restaurant",
        "cuisine": "indian;thai;international",
        "delivery": "Mo-Sa 11:00-21:30;Su 12:00-20:30",
        "diet:vegan": "yes",
        "diet:vegetarian": "yes",
        "email": "ind-s-kongresshaus@soulkitchen.world",
        "indoor_seating": "yes",
        "name": "my Indigo Kongresshaus",
        "opening_hours": "Mo-Sa 11:00-22:00; Su 12:00-21:00",
        "outdoor_seating": "yes",
        "phone": "+43-662-870642",
        "smoking": "outside",
        "takeaway": "yes",
        "wheelchair": "no"
      },
      "geometry": {
        "type": "Point",
        "coordinates": [
          13.0424316,
          47.8076078
        ]
      },
      "id": "node/5242955221"
    },
    {
      "type": "Feature",
      "properties": {
        "@id": "node/5332145383",
        "addr:city": "Salzburg",
        "addr:housenumber": "1",
        "addr:postcode": "5020",
        "addr:street": "Europastraße",
        "amenity": "restaurant",
        "cuisine": "indian;thai;international",
        "diet:vegan": "yes",
        "diet:vegetarian": "yes",
        "email": "ind-s-europark@soulkitchen.world",
        "level": "1",
        "name": "my Indigo Europark",
        "opening_hours": "Mo-Th 09:00-19:30; Fr 09:00-21:00; Sa 09:00-18:00",
        "phone": "+43 662 421141",
        "smoking": "no",
        "takeaway": "yes",
        "website": "https://myindigo.com"
      },
      "geometry": {
        "type": "Point",
        "coordinates": [
          13.0079516,
          47.8161485
        ]
      },
      "id": "node/5332145383"
    },
    {
      "type": "Feature",
      "properties": {
        "@id": "node/5373582297",
        "amenity": "cafe",
        "check_date:opening_hours": "2024-05-27",
        "diet:vegan": "yes",
        "diet:vegetarian": "yes",
        "indoor_seating": "yes",
        "name": "Natoo",
        "opening_hours": "Mo-Su,PH 07:00-20:00",
        "outdoor_seating": "no",
        "wheelchair": "yes"
      },
      "geometry": {
        "type": "Point",
        "coordinates": [
          13.0452364,
          47.813193
        ]
      },
      "id": "node/5373582297"
    },
    {
      "type": "Feature",
      "properties": {
        "@id": "node/5420746063",
        "amenity": "restaurant",
        "cuisine": "indian;thai;international",
        "delivery": "no",
        "diet:vegan": "yes",
        "diet:vegetarian": "yes",
        "email": "ind-s-herrnau@soulkitchen.world",
        "indoor_seating": "yes",
        "name": "my Indigo Herrnau",
        "opening_hours": "Mo-Sa 11:00-22:00; Su 12:00-21:00",
        "outdoor_seating": "yes",
        "phone": "+43-662-627194",
        "smoking": "outside",
        "takeaway": "yes",
        "wheelchair": "no"
      },
      "geometry": {
        "type": "Point",
        "coordinates": [
          13.0661401,
          47.7861679
        ]
      },
      "id": "node/5420746063"
    },
    {
      "type": "Feature",
      "properties": {
        "@id": "node/5743176723",
        "addr:city": "Salzburg",
        "addr:housenumber": "14",
        "addr:postcode": "5020",
        "addr:street": "Linzer Gasse",
        "amenity": "fast_food",
        "cuisine": "sausage",
        "diet:vegan": "yes",
        "name": "Kapuziner Imbiss",
        "outdoor_seating": "yes",
        "takeaway": "yes",
        "wheelchair": "no"
      },
      "geometry": {
        "type": "Point",
        "coordinates": [
          13.0458273,
          47.802389
        ]
      },
      "id": "node/5743176723"
    },
    {
      "type": "Feature",
      "properties": {
        "@id": "node/5997765094",
        "addr:city": "Salzburg",
        "addr:country": "AT",
        "addr:housenumber": "2",
        "addr:postcode": "5020",
        "addr:street": "Pfeifergasse",
        "amenity": "restaurant",
        "capacity": "14",
        "cuisine": "asian;wok;vietnamese",
        "diet:vegan": "yes",
        "diet:vegetarian": "yes",
        "name": "Uncle Van",
        "opening_hours": "Mo-Sa 11:30-19:00",
        "outdoor_seating": "yes",
        "takeaway": "yes",
        "website": "https://uncle-van.at/",
        "wheelchair": "no"
      },
      "geometry": {
        "type": "Point",
        "coordinates": [
          13.0486644,
          47.7985342
        ]
      },
      "id": "node/5997765094"
    },
    {
      "type": "Feature",
      "properties": {
        "@id": "node/6022917278",
        "amenity": "fast_food",
        "brand": "Subway",
        "brand:wikidata": "Q244457",
        "brand:wikipedia": "en:Subway (restaurant)",
        "cuisine": "sandwich",
        "diet:vegan": "yes",
        "diet:vegetarian": "yes",
        "drive_through": "no",
        "indoor_seating": "yes",
        "level": "0",
        "name": "Subway",
        "outdoor_seating": "no",
        "takeaway": "yes",
        "wheelchair": "yes"
      },
      "geometry": {
        "type": "Point",
        "coordinates": [
          13.0426074,
          47.8105758
        ]
      },
      "id": "node/6022917278"
    },
    {
      "type": "Feature",
      "properties": {
        "@id": "node/6039466753",
        "addr:housenumber": "35",
        "addr:street": "Linzer Gasse",
        "amenity": "ice_cream",
        "diet:vegan": "yes",
        "name": "Eis-Greissler",
        "opening_hours": "Mo-Su 10:30-17:00; 24/7 off",
        "organic": "yes",
        "website": "https://www.eis-greissler.at/unsere-laeden/salzburg/",
        "wheelchair": "yes"
      },
      "geometry": {
        "type": "Point",
        "coordinates": [
          13.0470092,
          47.8035202
        ]
      },
      "id": "node/6039466753"
    },
    {
      "type": "Feature",
      "properties": {
        "@id": "node/6274108063",
        "amenity": "restaurant",
        "diet:vegan": "yes",
        "diet:vegetarian": "only",
        "email": "living-light-lunch@aon.at",
        "name": "Keimling",
        "opening_hours": "Mo-Fr 09:00-17:00",
        "operator": "Michaela Rath",
        "phone": "+43-662-853675",
        "website": "https://keimling-vegetarisch.at"
      },
      "geometry": {
        "type": "Point",
        "coordinates": [
          12.9919547,
          47.7916671
        ]
      },
      "id": "node/6274108063"
    },
    {
      "type": "Feature",
      "properties": {
        "@id": "node/6290445997",
        "amenity": "cafe",
        "branch": "Bio Supermarkt",
        "brand": "basic",
        "brand:wikidata": "Q809994",
        "brand:wikipedia": "de:Basic AG",
        "cuisine": "bistro",
        "diet:vegan": "yes",
        "diet:vegetarian": "yes",
        "indoor_seating": "yes",
        "name": "basic Bistro",
        "opening_hours": "Mo-Fr 08:00-19:00; Sa 08:00-18:00",
        "operator": "basic AG Lebensmittelhandel",
        "organic": "only",
        "outdoor_seating": "yes",
        "website": "https://basicbio.de/maerkte",
        "wheelchair": "yes"
      },
      "geometry": {
        "type": "Point",
        "coordinates": [
          13.0680175,
          47.7814782
        ]
      },
      "id": "node/6290445997"
    },
    {
      "type": "Feature",
      "properties": {
        "@id": "node/6290460311",
        "amenity": "fast_food",
        "cuisine": "thai",
        "diet:vegan": "yes",
        "diet:vegetarian": "yes",
        "name": "Donna's Thaiküche",
        "opening_hours": "Mo-Fr 11:00-19:30; Su 12:00-19:30; Su off"
      },
      "geometry": {
        "type": "Point",
        "coordinates": [
          13.0458845,
          47.8070984
        ]
      },
      "id": "node/6290460311"
    },
    {
      "type": "Feature",
      "properties": {
        "@id": "node/6291296637",
        "addr:city": "Salzburg",
        "addr:housenumber": "24",
        "addr:postcode": "5020",
        "addr:street": "Franz-Josef-Straße",
        "amenity": "restaurant",
        "cuisine": "asian;chinese;thai",
        "diet:vegan": "yes",
        "diet:vegetarian": "yes",
        "indoor_seating": "yes",
        "name": "Yiyami Asia Restaurant",
        "opening_hours": "Mo-Su 11:00-14:30,17:00-22:30",
        "outdoor_seating": "yes",
        "phone": "+43-662-882154",
        "website": "https://yiyami.business.site"
      },
      "geometry": {
        "type": "Point",
        "coordinates": [
          13.048443,
          47.8058317
        ]
      },
      "id": "node/6291296637"
    },
    {
      "type": "Feature",
      "properties": {
        "@id": "node/6436201786",
        "addr:city": "Salzburg",
        "addr:housenumber": "114a/b",
        "addr:postcode": "5020",
        "addr:street": "Münchner Bundesstraße",
        "amenity": "restaurant",
        "cuisine": "thai",
        "diet:chicken": "yes",
        "diet:egg_free": "yes",
        "diet:fish": "yes",
        "diet:healthy": "yes",
        "diet:lactose_free": "yes",
        "diet:meat": "yes",
        "diet:vegan": "yes",
        "indoor_seating": "yes",
        "name": "Manao - Thai Restaurant",
        "opening_hours": "Tu-Sa 15:00-23:00",
        "outdoor_seating": "yes",
        "phone": "+43 664 2374930",
        "website": "https://manao-thai.at",
        "wheelchair": "no"
      },
      "geometry": {
        "type": "Point",
        "coordinates": [
          13.0052414,
          47.828965
        ]
      },
      "id": "node/6436201786"
    },
    {
      "type": "Feature",
      "properties": {
        "@id": "node/6464795775",
        "addr:city": "Salzburg",
        "addr:housenumber": "9",
        "addr:postcode": "5020",
        "addr:street": "Steingasse",
        "amenity": "restaurant",
        "cuisine": "asian;vietnamese",
        "diet:vegan": "yes",
        "diet:vegetarian": "yes",
        "indoor_seating": "yes",
        "name": "Uncle Van",
        "opening_hours": "Mo-Sa 11:30-15:00, 17:30-21:00; Su 11:30-20:00",
        "outdoor_seating": "no",
        "takeaway": "yes",
        "website": "https://uncle-van.at/",
        "wheelchair": "no"
      },
      "geometry": {
        "type": "Point",
        "coordinates": [
          13.0457414,
          47.8013837
        ]
      },
      "id": "node/6464795775"
    },
    {
      "type": "Feature",
      "properties": {
        "@id": "node/6732247390",
        "amenity": "restaurant",
        "contact:website": "https://www.monchstein.at/de/location/the-glass-garden/",
        "diet:vegan": "yes",
        "diet:vegetarian": "yes",
        "name": "The Glass Garden",
        "opening_hours": "Mo-Su 12:00-13:30; Mo-Su 18:00-21:30",
        "toilets:wheelchair": "yes",
        "wheelchair": "yes"
      },
      "geometry": {
        "type": "Point",
        "coordinates": [
          13.0358097,
          47.804016
        ]
      },
      "id": "node/6732247390"
    },
    {
      "type": "Feature",
      "properties": {
        "@id": "node/7033613686",
        "addr:housenumber": "53a",
        "addr:postcode": "5020",
        "addr:street": "Elisabethstraße",
        "amenity": "restaurant",
        "cuisine": "arab;oriental",
        "diet:halal": "yes",
        "diet:meat": "yes",
        "diet:non-vegetarian": "yes",
        "diet:vegan": "yes",
        "diet:vegetarian": "yes",
        "email": "uncle.falafel@gmail.com",
        "name": "Uncle Falafel",
        "opening_hours": "Mo-Th 11:00-22:00; Fr,Sa 11:00-24:00",
        "outdoor_seating": "yes",
        "payment:cash": "yes",
        "payment:debit_cards": "yes",
        "phone": "+43 676 4444165",
        "website": "https://www.uncle-falafel.at/"
      },
      "geometry": {
        "type": "Point",
        "coordinates": [
          13.044111,
          47.8174205
        ]
      },
      "id": "node/7033613686"
    },
    {
      "type": "Feature",
      "properties": {
        "@id": "node/7167826919",
        "addr:city": "Salzburg",
        "addr:housenumber": "28",
        "addr:postcode": "5020",
        "addr:street": "Sterneckstraße",
        "amenity": "restaurant",
        "cuisine": "indian;thai;international",
        "diet:vegan": "yes",
        "diet:vegetarian": "yes",
        "email": "ind-s-mooncity@soulkitchen.world",
        "name": "my Indigo Mooncity",
        "opening_hours": "Mo-Sa 11:00-22:00",
        "phone": "+43 664 8308376",
        "website": "https://www.myindigo.com/"
      },
      "geometry": {
        "type": "Point",
        "coordinates": [
          13.0564096,
          47.8087702
        ]
      },
      "id": "node/7167826919"
    },
    {
      "type": "Feature",
      "properties": {
        "@id": "node/7846407677",
        "addr:city": "Salzburg",
        "addr:housenumber": "3",
        "addr:postcode": "5020",
        "addr:street": "Makartplatz",
        "amenity": "fast_food",
        "brand": "dean&david",
        "brand:wikidata": "Q66132404",
        "cuisine": "sandwich",
        "diet:vegan": "yes",
        "diet:vegetarian": "yes",
        "indoor_seating": "yes",
        "name": "dean&david",
        "opening_hours": "PH,Mo-Su 11:00-20:00",
        "outdoor_seating": "yes",
        "phone": "+43 67763442838",
        "takeaway": "yes",
        "website": "https://deananddavid.com/en/salzburg-makartplatz/",
        "website:menu": "https://deananddavid.com/en/food-and-drinks/",
        "wheelchair": "limited"
      },
      "geometry": {
        "type": "Point",
        "coordinates": [
          13.0433046,
          47.8031707
        ]
      },
      "id": "node/7846407677"
    },
    {
      "type": "Feature",
      "properties": {
        "@id": "node/7888151586",
        "addr:city": "Salzburg",
        "addr:country": "AT",
        "addr:housenumber": "21a",
        "addr:postcode": "5020",
        "addr:street": "Elisabethstraße",
        "amenity": "restaurant",
        "contact:email": "pizzeria@lievitamente.net",
        "contact:phone": "+43 664 3585844",
        "cuisine": "pizza",
        "diet:vegan": "yes",
        "diet:vegetarian": "yes",
        "level": "0",
        "name": "Lievitamente",
        "opening_hours": "Mo,Th-Su 14:00-21:00",
        "operator": "Luigi Perreca",
        "takeaway": "yes",
        "website": "https://pizzeria-lievitamente.eatbu.com",
        "wheelchair": "no",
        "wheelchair:description": "Stufe an Eingangstür 20cm"
      },
      "geometry": {
        "type": "Point",
        "coordinates": [
          13.0418237,
          47.8132859
        ]
      },
      "id": "node/7888151586"
    },
    {
      "type": "Feature",
      "properties": {
        "@id": "node/8003626864",
        "addr:city": "Salzburg",
        "addr:housenumber": "8",
        "addr:postcode": "5020",
        "addr:street": "Maxglaner Hauptstraße",
        "amenity": "restaurant",
        "currency:EUR": "yes",
        "currency:XBT": "yes",
        "diet:vegan": "yes",
        "diet:vegetarian": "yes",
        "email": "info@fit-smartfood.com",
        "name": "FIT.smartfood",
        "opening_hours": "Mo-Th 11:00-22:00; Fr-Su 09:00-22:00; PH off",
        "payment:cards": "yes",
        "payment:cash": "yes",
        "payment:lightning": "yes",
        "payment:lightning_contactless": "yes",
        "payment:onchain": "no",
        "phone": "+436766405870",
        "website": "https://fit-smartfood.com"
      },
      "geometry": {
        "type": "Point",
        "coordinates": [
          13.0249052,
          47.7962827
        ]
      },
      "id": "node/8003626864"
    },
    {
      "type": "Feature",
      "properties": {
        "@id": "node/9238720893",
        "addr:city": "Salzburg",
        "addr:housenumber": "24a",
        "addr:postcode": "5020",
        "addr:street": "General-Keyes-Straße",
        "amenity": "cafe",
        "diet:halal": "no",
        "diet:kosher": "no",
        "diet:vegan": "yes",
        "diet:vegetarian": "yes",
        "indoor_seating": "yes",
        "name": "The Neighborhood Café",
        "opening_hours": "Tu-Fr 07:00-14:00; Sa 09:00-16:00; Su 09:00-13:00",
        "outdoor_seating": "yes",
        "wheelchair": "yes"
      },
      "geometry": {
        "type": "Point",
        "coordinates": [
          13.0231495,
          47.815993
        ]
      },
      "id": "node/9238720893"
    },
    {
      "type": "Feature",
      "properties": {
        "@id": "node/9844541836",
        "addr:city": "Salzburg",
        "addr:housenumber": "39B",
        "addr:postcode": "5020",
        "addr:street": "Siezenheimer Straße",
        "amenity": "restaurant",
        "cuisine": "thai",
        "diet:vegan": "yes",
        "diet:vegetarian": "yes",
        "name": "Little Thai",
        "outdoor_seating": "yes",
        "phone": "+43 677 64817344"
      },
      "geometry": {
        "type": "Point",
        "coordinates": [
          13.0106787,
          47.807224
        ]
      },
      "id": "node/9844541836"
    },
    {
      "type": "Feature",
      "properties": {
        "@id": "node/9844541837",
        "addr:city": "Salzburg",
        "addr:housenumber": "39B",
        "addr:postcode": "5020",
        "addr:street": "Siezenheimer Straße",
        "amenity": "restaurant",
        "cuisine": "gyros;greek",
        "diet:vegan": "yes",
        "diet:vegetarian": "yes",
        "email": "office@gyroshermanos.at",
        "name": "Gyros Hermanos",
        "opening_hours": "Mo-Fr 11:30-18:00",
        "outdoor_seating": "yes",
        "website": "https://gyroshermanos.at"
      },
      "geometry": {
        "type": "Point",
        "coordinates": [
          13.010553,
          47.8071776
        ]
      },
      "id": "node/9844541837"
    },
    {
      "type": "Feature",
      "properties": {
        "@id": "node/9881067276",
        "addr:city": "Salzburg",
        "addr:housenumber": "13",
        "addr:postcode": "5020",
        "addr:street": "Südtiroler Platz",
        "alt_name": "Dunkin' Donuts",
        "amenity": "fast_food",
        "brand": "Dunkin'",
        "brand:wikidata": "Q847743",
        "cuisine": "donut;coffee_shop",
        "diet:vegan": "yes",
        "indoor_seating": "yes",
        "level": "0",
        "name": "Dunkin'",
        "opening_hours": "Mo-Fr 08:00-19:00, Sa 08:00-18:00",
        "outdoor_seating": "no",
        "takeaway": "yes",
        "wheelchair": "yes"
      },
      "geometry": {
        "type": "Point",
        "coordinates": [
          13.0449158,
          47.8140047
        ]
      },
      "id": "node/9881067276"
    },
    {
      "type": "Feature",
      "properties": {
        "@id": "node/11508606974",
        "access": "yes",
        "addr:city": "Salzburg",
        "addr:housenumber": "5",
        "addr:postcode": "5020",
        "addr:street": "Jakob-Haringer-Straße",
        "amenity": "restaurant",
        "diet:meat": "yes",
        "diet:vegan": "yes",
        "diet:vegetarian": "yes",
        "drive_through": "no",
        "name": "M BISTRO",
        "opening_hours": "Mo-Fr 09:00-15:00",
        "operator": "Österreichische Mensen Betriebsgesellschaft mbH",
        "phone": "+4357405509",
        "website": "https://www.mensen.at"
      },
      "geometry": {
        "type": "Point",
        "coordinates": [
          13.0410038,
          47.8228304
        ]
      },
      "id": "node/11508606974"
    }
  ]
}